[{"OBJECT_NAME":"STARLINK-37071","OBJECT_ID":"2026-050Z","EPOCH":"2026-03-26T07:08:36.672288","MEAN_MOTION":15.80908875,"ECCENTRICITY":8.438e-5,"INCLINATION":53.1592,"RA_OF_ASC_NODE":198.3966,"ARG_OF_PERICENTER":134.453,"MEAN_ANOMALY":225.6562,"EPHEMERIS_TYPE":0,"CLASSIFICATION_TYPE":"U","NORAD_CAT_ID":68190,"ELEMENT_SET_NO":999,"REV_AT_EPOCH":310,"BSTAR":0.0014068265,"MEAN_MOTION_DOT":0.00286863,"MEAN_MOTION_DDOT":0},{"OBJECT_NAME":"STARLINK-37091","OBJECT_ID":"2026-050AA","EPOCH":"2026-03-26T01:03:22.869216","MEAN_MOTION":15.80999217,"ECCENTRICITY":0.0001406,"INCLINATION":53.1593,"RA_OF_ASC_NODE":199.6588,"ARG_OF_PERICENTER":66.8452,"MEAN_ANOMALY":293.2719,"EPHEMERIS_TYPE":0,"CLASSIFICATION_TYPE":"U","NORAD_CAT_ID":68191,"ELEMENT_SET_NO":999,"REV_AT_EPOCH":306,"BSTAR":0.0016505102,"MEAN_MOTION_DOT":0.00340193,"MEAN_MOTION_DDOT":0},{"OBJECT_NAME":"STARLINK-37098","OBJECT_ID":"2026-050AB","EPOCH":"2026-03-26T01:02:18.834720","MEAN_MOTION":15.80952966,"ECCENTRICITY":0.00027572,"INCLINATION":53.1596,"RA_OF_ASC_NODE":199.6546,"ARG_OF_PERICENTER":68.9204,"MEAN_ANOMALY":291.2113,"EPHEMERIS_TYPE":0,"CLASSIFICATION_TYPE":"U","NORAD_CAT_ID":68192,"ELEMENT_SET_NO":999,"REV_AT_EPOCH":306,"BSTAR":0.0012299482,"MEAN_MOTION_DOT":0.00250152,"MEAN_MOTION_DDOT":0},{"OBJECT_NAME":"STARLINK-37090","OBJECT_ID":"2026-050AC","EPOCH":"2026-03-26T07:04:17.762592","MEAN_MOTION":15.81143737,"ECCENTRICITY":0.00010571,"INCLINATION":53.159,"RA_OF_ASC_NODE":198.376,"ARG_OF_PERICENTER":203.7291,"MEAN_ANOMALY":156.3683,"EPHEMERIS_TYPE":0,"CLASSIFICATION_TYPE":"U","NORAD_CAT_ID":68193,"ELEMENT_SET_NO":999,"REV_AT_EPOCH":310,"BSTAR":0.0029196652,"MEAN_MOTION_DOT":0.00627219,"MEAN_MOTION_DDOT":0},{"OBJECT_NAME":"STARLINK-37093","OBJECT_ID":"2026-050AD","EPOCH":"2026-03-26T07:09:41.541408","MEAN_MOTION":15.80900749,"ECCENTRICITY":7.194e-5,"INCLINATION":53.1597,"RA_OF_ASC_NODE":198.4012,"ARG_OF_PERICENTER":75.8405,"MEAN_ANOMALY":284.2698,"EPHEMERIS_TYPE":0,"CLASSIFICATION_TYPE":"U","NORAD_CAT_ID":68194,"ELEMENT_SET_NO":999,"REV_AT_EPOCH":310,"BSTAR":0.0013126212,"MEAN_MOTION_DOT":0.00266881,"MEAN_MOTION_DDOT":0},{"OBJECT_NAME":"STARLINK-37058","OBJECT_ID":"2026-050AE","EPOCH":"2026-03-26T05:34:20.162784","MEAN_MOTION":15.80902814,"ECCENTRICITY":0.00011546,"INCLINATION":53.1592,"RA_OF_ASC_NODE":198.6979,"ARG_OF_PERICENTER":47.966,"MEAN_ANOMALY":312.1461,"EPHEMERIS_TYPE":0,"CLASSIFICATION_TYPE":"U","NORAD_CAT_ID":68195,"ELEMENT_SET_NO":999,"REV_AT_EPOCH":153,"BSTAR":0.00076729562,"MEAN_MOTION_DOT":0.00153675,"MEAN_MOTION_DDOT":0},{"OBJECT_NAME":"YAOGAN-50 02","OBJECT_ID":"2026-051A","EPOCH":"2026-03-26T06:11:52.635840","MEAN_MOTION":13.83268443,"ECCENTRICITY":0.00010714,"INCLINATION":141.9879,"RA_OF_ASC_NODE":287.1078,"ARG_OF_PERICENTER":230.8386,"MEAN_ANOMALY":129.2238,"EPHEMERIS_TYPE":0,"CLASSIFICATION_TYPE":"U","NORAD_CAT_ID":68196,"ELEMENT_SET_NO":999,"REV_AT_EPOCH":150,"BSTAR":7.3184781e-5,"MEAN_MOTION_DOT":2.67e-6,"MEAN_MOTION_DDOT":0},{"OBJECT_NAME":"2026-052A","OBJECT_ID":"2026-052A","EPOCH":"2026-03-26T05:24:00.569376","MEAN_MOTION":15.09907026,"ECCENTRICITY":0.00129665,"INCLINATION":97.5365,"RA_OF_ASC_NODE":161.3146,"ARG_OF_PERICENTER":228.4117,"MEAN_ANOMALY":131.6002,"EPHEMERIS_TYPE":0,"CLASSIFICATION_TYPE":"U","NORAD_CAT_ID":68198,"ELEMENT_SET_NO":999,"REV_AT_EPOCH":152,"BSTAR":0.00044395917,"MEAN_MOTION_DOT":7.147e-5,"MEAN_MOTION_DDOT":0},{"OBJECT_NAME":"YUXING-3 06","OBJECT_ID":"2026-052B","EPOCH":"2026-03-26T06:58:00.071904","MEAN_MOTION":15.10060073,"ECCENTRICITY":0.00119494,"INCLINATION":97.537,"RA_OF_ASC_NODE":161.3805,"ARG_OF_PERICENTER":229.129,"MEAN_ANOMALY":130.8904,"EPHEMERIS_TYPE":0,"CLASSIFICATION_TYPE":"U","NORAD_CAT_ID":68199,"ELEMENT_SET_NO":999,"REV_AT_EPOCH":153,"BSTAR":0.00032912129,"MEAN_MOTION_DOT":5.301e-5,"MEAN_MOTION_DDOT":0},{"OBJECT_NAME":"2026-052C","OBJECT_ID":"2026-052C","EPOCH":"2026-03-26T06:56:43.193184","MEAN_MOTION":15.10189052,"ECCENTRICITY":0.0011674,"INCLINATION":97.537,"RA_OF_ASC_NODE":161.3828,"ARG_OF_PERICENTER":231.671,"MEAN_ANOMALY":128.3471,"EPHEMERIS_TYPE":0,"CLASSIFICATION_TYPE":"U","NORAD_CAT_ID":68200,"ELEMENT_SET_NO":999,"REV_AT_EPOCH":152,"BSTAR":0.00030078855,"MEAN_MOTION_DOT":4.856e-5,"MEAN_MOTION_DDOT":0},{"OBJECT_NAME":"2026-052D","OBJECT_ID":"2026-052D","EPOCH":"2026-03-26T06:55:09.481152","MEAN_MOTION":15.10380081,"ECCENTRICITY":0.00109013,"INCLINATION":97.5374,"RA_OF_ASC_NODE":161.3805,"ARG_OF_PERICENTER":227.8999,"MEAN_ANOMALY":132.1305,"EPHEMERIS_TYPE":0,"CLASSIFICATION_TYPE":"U","NORAD_CAT_ID":68201,"ELEMENT_SET_NO":999,"REV_AT_EPOCH":153,"BSTAR":0.00042964761,"MEAN_MOTION_DOT":7.001e-5,"MEAN_MOTION_DDOT":0},{"OBJECT_NAME":"2026-052E","OBJECT_ID":"2026-052E","EPOCH":"2026-03-26T03:44:19.747104","MEAN_MOTION":15.1037855,"ECCENTRICITY":0.00107414,"INCLINATION":97.5373,"RA_OF_ASC_NODE":161.2521,"ARG_OF_PERICENTER":232.6259,"MEAN_ANOMALY":127.3993,"EPHEMERIS_TYPE":0,"CLASSIFICATION_TYPE":"U","NORAD_CAT_ID":68202,"ELEMENT_SET_NO":999,"REV_AT_EPOCH":151,"BSTAR":0.00041793972,"MEAN_MOTION_DOT":6.808e-5,"MEAN_MOTION_DDOT":0},{"OBJECT_NAME":"2026-052F","OBJECT_ID":"2026-052F","EPOCH":"2026-03-26T06:52:42.642624","MEAN_MOTION":15.10635095,"ECCENTRICITY":0.00099656,"INCLINATION":97.5365,"RA_OF_ASC_NODE":161.3893,"ARG_OF_PERICENTER":224.1225,"MEAN_ANOMALY":135.9211,"EPHEMERIS_TYPE":0,"CLASSIFICATION_TYPE":"U","NORAD_CAT_ID":68203,"ELEMENT_SET_NO":999,"REV_AT_EPOCH":153,"BSTAR":0.0004233349,"MEAN_MOTION_DOT":6.945e-5,"MEAN_MOTION_DDOT":0},{"OBJECT_NAME":"2026-052G","OBJECT_ID":"2026-052G","EPOCH":"2026-03-26T06:52:14.355264","MEAN_MOTION":15.10682221,"ECCENTRICITY":0.00095316,"INCLINATION":97.5374,"RA_OF_ASC_NODE":161.384,"ARG_OF_PERICENTER":227.226,"MEAN_ANOMALY":132.8169,"EPHEMERIS_TYPE":0,"CLASSIFICATION_TYPE":"U","NORAD_CAT_ID":68204,"ELEMENT_SET_NO":999,"REV_AT_EPOCH":153,"BSTAR":0.0004138364,"MEAN_MOTION_DOT":6.796e-5,"MEAN_MOTION_DDOT":0}]
