STARLINK-37071          
1 68190U 26050Z   26085.29764667  .00286863  00000+0  14068-2 0  9998
2 68190  53.1592 198.3966 0000843 134.4530 225.6562 15.80908875  3101
STARLINK-37091          
1 68191U 26050AA  26085.04401469  .00340193  00000+0  16505-2 0  9995
2 68191  53.1593 199.6588 0001406  66.8452 293.2719 15.80999217  3064
STARLINK-37098          
1 68192U 26050AB  26085.04327355  .00250152  00000+0  12299-2 0  9998
2 68192  53.1596 199.6546 0002757  68.9204 291.2113 15.80952966  3066
STARLINK-37090          
1 68193U 26050AC  26085.29465003  .00627219  00000+0  29197-2 0  9996
2 68193  53.1590 198.3760 0001057 203.7291 156.3683 15.81143737  3109
STARLINK-37093          
1 68194U 26050AD  26085.29839747  .00266881  00000+0  13126-2 0  9996
2 68194  53.1597 198.4012 0000719  75.8405 284.2698 15.80900749  3107
STARLINK-37058          
1 68195U 26050AE  26085.23217781  .00153675  00000+0  76730-3 0  9996
2 68195  53.1592 198.6979 0001154  47.9660 312.1461 15.80902814  1533
YAOGAN-50 02            
1 68196U 26051A   26085.25824810  .00000267  00000+0  73185-4 0  9997
2 68196 141.9879 287.1078 0001071 230.8386 129.2238 13.83268443  1508
2026-052A               
1 68198U 26052A   26085.22500659  .00007147  00000+0  44396-3 0  9994
2 68198  97.5365 161.3146 0012966 228.4117 131.6002 15.09907026  1520
YUXING-3 06             
1 68199U 26052B   26085.29027861  .00005301  00000+0  32912-3 0  9992
2 68199  97.5370 161.3805 0011949 229.1290 130.8904 15.10060073  1536
2026-052C               
1 68200U 26052C   26085.28938881  .00004856  00000+0  30079-3 0  9993
2 68200  97.5370 161.3828 0011674 231.6710 128.3471 15.10189052  1523
2026-052D               
1 68201U 26052D   26085.28830418  .00007001  00000+0  42965-3 0  9993
2 68201  97.5374 161.3805 0010901 227.8999 132.1305 15.10380081  1536
2026-052E               
1 68202U 26052E   26085.15578411  .00006808  00000+0  41794-3 0  9995
2 68202  97.5373 161.2521 0010741 232.6259 127.3993 15.10378550  1510
2026-052F               
1 68203U 26052F   26085.28660466  .00006945  00000+0  42333-3 0  9994
2 68203  97.5365 161.3893 0009965 224.1225 135.9211 15.10635095  1530
2026-052G               
1 68204U 26052G   26085.28627726  .00006796  00000+0  41384-3 0  9996
2 68204  97.5374 161.3840 0009531 227.2260 132.8169 15.10682221  1536
